STARLINK-34672          
1 65894U 25224N   25308.07190831  .00092960  00000+0  16572-2 0  9992
2 65894  53.1616 236.1006 0001328  80.9284 279.1875 15.49351373  5622
STARLINK-34898          
1 65895U 25224P   25308.07053401  .00081911  00000+0  14635-2 0  9996
2 65895  53.1621 236.0898 0001291  78.8453 281.2701 15.49345402  5628
STARLINK-34906          
1 65896U 25224Q   25308.50003471  .00048957  00000+0  88428-3 0  9992
2 65896  53.1606 234.0398 0001067 103.3920 131.7280 15.49260901  5754
STARLINK-34934          
1 65897U 25224R   25308.06984635  .00076123  00000+0  13619-2 0  9999
2 65897  53.1618 236.0849 0000777  81.1350 278.9748 15.49342052  5579
STARLINK-34936          
1 65898U 25224S   25308.19921740  .00072730  00000+0  13028-2 0  9996
2 65898  53.1598 235.4711 0004858  21.7328 338.3887 15.49316746  5641
STARLINK-35272          
1 65899U 25224T   25308.06950460  .00079109  00000+0  14149-2 0  9996
2 65899  53.1624 236.0815 0000994  85.4728 274.6395 15.49333233  5615
STARLINK-35264          
1 65900U 25224U   25308.06915986  .00086425  00000+0  15431-2 0  9997
2 65900  53.1614 236.0797 0001207  89.7290 270.3857 15.49341402  5618
STARLINK-35249          
1 65901U 25224V   25308.06881624  .00082963  00000+0  14821-2 0  9994
2 65901  53.1621 236.0783 0001450  81.8023 278.3150 15.49344569  5609
STARLINK-35278          
1 65902U 25224W   25308.33336806  .00082415  00000+0  14776-2 0  9993
2 65902  53.1605 234.8014 0001355  85.0783 317.1949 15.49245069  5735
STARLINK-35210          
1 65903U 25224X   25308.06812892  .00099664  00000+0  17748-2 0  9994
2 65903  53.1614 236.0739 0001169  71.6960 288.4176 15.49348370  5602
STARLINK-35348          
1 65904U 25224Y   25308.06847331  .00078346  00000+0  14012-2 0  9996
2 65904  53.1610 236.0761 0000976  64.7126 295.3984 15.49338142  5572
STARLINK-35380          
1 65905U 25224Z   25308.06744312  .00091757  00000+0  16364-2 0  9995
2 65905  53.1608 236.0687 0001241  93.2612 266.8539 15.49346268  5577
